[{"OBJECT_NAME":"STARLINK-37063","OBJECT_ID":"2026-042L","EPOCH":"2026-03-31T05:56:07.786176","MEAN_MOTION":15.80938888,"ECCENTRICITY":0.00012343,"INCLINATION":53.1567,"RA_OF_ASC_NODE":86.6592,"ARG_OF_PERICENTER":47.4326,"MEAN_ANOMALY":312.68,"EPHEMERIS_TYPE":0,"CLASSIFICATION_TYPE":"U","NORAD_CAT_ID":68079,"ELEMENT_SET_NO":999,"REV_AT_EPOCH":549,"BSTAR":0.00096582328,"MEAN_MOTION_DOT":0.00194877,"MEAN_MOTION_DDOT":0},{"OBJECT_NAME":"STARLINK-37051","OBJECT_ID":"2026-042M","EPOCH":"2026-03-31T06:27:30.275424","MEAN_MOTION":15.75332445,"ECCENTRICITY":0.00012487,"INCLINATION":53.1583,"RA_OF_ASC_NODE":86.8021,"ARG_OF_PERICENTER":90.2311,"MEAN_ANOMALY":269.8853,"EPHEMERIS_TYPE":0,"CLASSIFICATION_TYPE":"U","NORAD_CAT_ID":68080,"ELEMENT_SET_NO":999,"REV_AT_EPOCH":549,"BSTAR":0.0016330358,"MEAN_MOTION_DOT":0.00258539,"MEAN_MOTION_DDOT":0},{"OBJECT_NAME":"STARLINK-37066","OBJECT_ID":"2026-042N","EPOCH":"2026-03-31T06:46:38.427744","MEAN_MOTION":15.75268068,"ECCENTRICITY":0.00011791,"INCLINATION":53.1593,"RA_OF_ASC_NODE":86.8914,"ARG_OF_PERICENTER":120.296,"MEAN_ANOMALY":239.8177,"EPHEMERIS_TYPE":0,"CLASSIFICATION_TYPE":"U","NORAD_CAT_ID":68081,"ELEMENT_SET_NO":999,"REV_AT_EPOCH":549,"BSTAR":0.0019634076,"MEAN_MOTION_DOT":0.00312097,"MEAN_MOTION_DDOT":0},{"OBJECT_NAME":"STARLINK-37054","OBJECT_ID":"2026-042P","EPOCH":"2026-03-31T05:51:48.847104","MEAN_MOTION":15.80882667,"ECCENTRICITY":0.00012427,"INCLINATION":53.157,"RA_OF_ASC_NODE":86.6384,"ARG_OF_PERICENTER":132.6231,"MEAN_ANOMALY":227.4897,"EPHEMERIS_TYPE":0,"CLASSIFICATION_TYPE":"U","NORAD_CAT_ID":68082,"ELEMENT_SET_NO":999,"REV_AT_EPOCH":549,"BSTAR":0.0023742765,"MEAN_MOTION_DOT":0.00496085,"MEAN_MOTION_DDOT":0},{"OBJECT_NAME":"STARLINK-37065","OBJECT_ID":"2026-042Q","EPOCH":"2026-03-30T23:16:22.149984","MEAN_MOTION":15.75373865,"ECCENTRICITY":0.0002057,"INCLINATION":53.158,"RA_OF_ASC_NODE":88.4984,"ARG_OF_PERICENTER":88.3376,"MEAN_ANOMALY":271.788,"EPHEMERIS_TYPE":0,"CLASSIFICATION_TYPE":"U","NORAD_CAT_ID":68083,"ELEMENT_SET_NO":999,"REV_AT_EPOCH":544,"BSTAR":0.002029,"MEAN_MOTION_DOT":0.00324508,"MEAN_MOTION_DDOT":0},{"OBJECT_NAME":"STARLINK-37037","OBJECT_ID":"2026-042R","EPOCH":"2026-03-31T06:27:02.040768","MEAN_MOTION":15.75278756,"ECCENTRICITY":0.00014479,"INCLINATION":53.158,"RA_OF_ASC_NODE":86.8008,"ARG_OF_PERICENTER":103.6617,"MEAN_ANOMALY":256.4564,"EPHEMERIS_TYPE":0,"CLASSIFICATION_TYPE":"U","NORAD_CAT_ID":68084,"ELEMENT_SET_NO":999,"REV_AT_EPOCH":549,"BSTAR":0.0019750751,"MEAN_MOTION_DOT":0.00314177,"MEAN_MOTION_DDOT":0},{"OBJECT_NAME":"STARLINK-37068","OBJECT_ID":"2026-042S","EPOCH":"2026-03-31T06:07:54.122592","MEAN_MOTION":15.7524779,"ECCENTRICITY":0.00012179,"INCLINATION":53.1593,"RA_OF_ASC_NODE":86.7108,"ARG_OF_PERICENTER":131.7985,"MEAN_ANOMALY":228.3139,"EPHEMERIS_TYPE":0,"CLASSIFICATION_TYPE":"U","NORAD_CAT_ID":68085,"ELEMENT_SET_NO":999,"REV_AT_EPOCH":549,"BSTAR":0.0022649798,"MEAN_MOTION_DOT":0.00361973,"MEAN_MOTION_DDOT":0},{"OBJECT_NAME":"STARLINK-37067","OBJECT_ID":"2026-042T","EPOCH":"2026-03-31T05:47:29.570208","MEAN_MOTION":15.8086915,"ECCENTRICITY":0.00013464,"INCLINATION":53.1573,"RA_OF_ASC_NODE":86.6183,"ARG_OF_PERICENTER":139.4062,"MEAN_ANOMALY":220.7061,"EPHEMERIS_TYPE":0,"CLASSIFICATION_TYPE":"U","NORAD_CAT_ID":68086,"ELEMENT_SET_NO":999,"REV_AT_EPOCH":549,"BSTAR":0.0018641587,"MEAN_MOTION_DOT":0.00383999,"MEAN_MOTION_DDOT":0},{"OBJECT_NAME":"STARLINK-37062","OBJECT_ID":"2026-042U","EPOCH":"2026-03-31T06:00:02.000160","MEAN_MOTION":15.76811392,"ECCENTRICITY":7.53e-5,"INCLINATION":53.1588,"RA_OF_ASC_NODE":86.5795,"ARG_OF_PERICENTER":94.2237,"MEAN_ANOMALY":312.8728,"EPHEMERIS_TYPE":0,"CLASSIFICATION_TYPE":"U","NORAD_CAT_ID":68087,"ELEMENT_SET_NO":999,"REV_AT_EPOCH":551,"BSTAR":-0.012187858,"MEAN_MOTION_DOT":-0.01762608,"MEAN_MOTION_DDOT":0},{"OBJECT_NAME":"STARLINK-37059","OBJECT_ID":"2026-042V","EPOCH":"2026-03-31T06:00:02.000160","MEAN_MOTION":15.75147014,"ECCENTRICITY":9.609e-5,"INCLINATION":53.159,"RA_OF_ASC_NODE":86.6823,"ARG_OF_PERICENTER":84.4882,"MEAN_ANOMALY":272.2451,"EPHEMERIS_TYPE":0,"CLASSIFICATION_TYPE":"U","NORAD_CAT_ID":68088,"ELEMENT_SET_NO":999,"REV_AT_EPOCH":551,"BSTAR":0.001021447,"MEAN_MOTION_DOT":0.0015826,"MEAN_MOTION_DDOT":0},{"OBJECT_NAME":"STARLINK-37004","OBJECT_ID":"2026-042W","EPOCH":"2026-03-31T06:07:25.735872","MEAN_MOTION":15.75273181,"ECCENTRICITY":0.00012947,"INCLINATION":53.1599,"RA_OF_ASC_NODE":86.7088,"ARG_OF_PERICENTER":104.0824,"MEAN_ANOMALY":256.034,"EPHEMERIS_TYPE":0,"CLASSIFICATION_TYPE":"U","NORAD_CAT_ID":68089,"ELEMENT_SET_NO":999,"REV_AT_EPOCH":549,"BSTAR":0.0017894783,"MEAN_MOTION_DOT":0.00283481,"MEAN_MOTION_DDOT":0},{"OBJECT_NAME":"STARLINK-36320","OBJECT_ID":"2026-042X","EPOCH":"2026-03-27T03:41:33.349344","MEAN_MOTION":15.75432358,"ECCENTRICITY":0.00027632,"INCLINATION":53.1593,"RA_OF_ASC_NODE":107.3571,"ARG_OF_PERICENTER":139.4736,"MEAN_ANOMALY":220.6491,"EPHEMERIS_TYPE":0,"CLASSIFICATION_TYPE":"U","NORAD_CAT_ID":68090,"ELEMENT_SET_NO":999,"REV_AT_EPOCH":484,"BSTAR":0.002325439,"MEAN_MOTION_DOT":0.00375248,"MEAN_MOTION_DDOT":0},{"OBJECT_NAME":"STARLINK-36324","OBJECT_ID":"2026-042Y","EPOCH":"2026-03-31T06:47:06.951840","MEAN_MOTION":15.75283361,"ECCENTRICITY":0.00014916,"INCLINATION":53.1584,"RA_OF_ASC_NODE":86.8925,"ARG_OF_PERICENTER":111.5876,"MEAN_ANOMALY":248.5304,"EPHEMERIS_TYPE":0,"CLASSIFICATION_TYPE":"U","NORAD_CAT_ID":68091,"ELEMENT_SET_NO":999,"REV_AT_EPOCH":549,"BSTAR":0.00099888935,"MEAN_MOTION_DOT":0.00155628,"MEAN_MOTION_DDOT":0},{"OBJECT_NAME":"STARLINK-36896","OBJECT_ID":"2026-042Z","EPOCH":"2026-03-31T06:33:34.473888","MEAN_MOTION":15.75284606,"ECCENTRICITY":0.00010637,"INCLINATION":53.1582,"RA_OF_ASC_NODE":86.8304,"ARG_OF_PERICENTER":44.7081,"MEAN_ANOMALY":315.4025,"EPHEMERIS_TYPE":0,"CLASSIFICATION_TYPE":"U","NORAD_CAT_ID":68092,"ELEMENT_SET_NO":999,"REV_AT_EPOCH":548,"BSTAR":0.0014646405,"MEAN_MOTION_DOT":0.00230557,"MEAN_MOTION_DDOT":0},{"OBJECT_NAME":"STARLINK-36251","OBJECT_ID":"2026-042AA","EPOCH":"2026-03-31T05:38:50.812512","MEAN_MOTION":15.80943115,"ECCENTRICITY":0.00015517,"INCLINATION":53.1574,"RA_OF_ASC_NODE":86.5769,"ARG_OF_PERICENTER":42.7946,"MEAN_ANOMALY":317.3197,"EPHEMERIS_TYPE":0,"CLASSIFICATION_TYPE":"U","NORAD_CAT_ID":68093,"ELEMENT_SET_NO":999,"REV_AT_EPOCH":548,"BSTAR":0.0010783054,"MEAN_MOTION_DOT":0.00218295,"MEAN_MOTION_DDOT":0},{"OBJECT_NAME":"STARLINK-36787","OBJECT_ID":"2026-042AB","EPOCH":"2026-03-31T06:40:34.615488","MEAN_MOTION":15.75327358,"ECCENTRICITY":0.00013407,"INCLINATION":53.1582,"RA_OF_ASC_NODE":86.8619,"ARG_OF_PERICENTER":90.2252,"MEAN_ANOMALY":269.8922,"EPHEMERIS_TYPE":0,"CLASSIFICATION_TYPE":"U","NORAD_CAT_ID":68094,"ELEMENT_SET_NO":999,"REV_AT_EPOCH":548,"BSTAR":0.0016008821,"MEAN_MOTION_DOT":0.00253218,"MEAN_MOTION_DDOT":0}]
