STARLINK-37063          
1 68079U 26042L   26090.24731234  .00194877  00000+0  96582-3 0  9995
2 68079  53.1567  86.6592 0001234  47.4326 312.6800 15.80938888  5497
STARLINK-37051          
1 68080U 26042M   26090.26910041  .00258539  00000+0  16330-2 0  9992
2 68080  53.1583  86.8021 0001248  90.2311 269.8853 15.75332445  5493
STARLINK-37066          
1 68081U 26042N   26090.28238921  .00312097  00000+0  19634-2 0  9995
2 68081  53.1593  86.8914 0001179 120.2960 239.8177 15.75268068  5498
STARLINK-37054          
1 68082U 26042P   26090.24431536  .00496085  00000+0  23743-2 0  9995
2 68082  53.1570  86.6384 0001242 132.6231 227.4897 15.80882667  5497
STARLINK-37065          
1 68083U 26042Q   26089.96970081  .00324508  00000+0  20290-2 0  9990
2 68083  53.1580  88.4984 0002057  88.3376 271.7880 15.75373865  5445
STARLINK-37037          
1 68084U 26042R   26090.26877362  .00314177  00000+0  19751-2 0  9995
2 68084  53.1580  86.8008 0001447 103.6617 256.4564 15.75278756  5493
STARLINK-37068          
1 68085U 26042S   26090.25548753  .00361973  00000+0  22650-2 0  9992
2 68085  53.1593  86.7108 0001217 131.7985 228.3139 15.75247790  5493
STARLINK-37067          
1 68086U 26042T   26090.24131447  .00383999  00000+0  18642-2 0  9998
2 68086  53.1573  86.6183 0001346 139.4062 220.7061 15.80869150  5494
STARLINK-37062          
1 68087U 26042U   26090.25002315 -.01762608  00000+0 -12188-1 0  9990
2 68087  53.1588  86.5795 0000753  94.2237 312.8728 15.76811392  5518
STARLINK-37059          
1 68088U 26042V   26090.25002315  .00158260  00000+0  10214-2 0  9990
2 68088  53.1590  86.6823 0000960  84.4882 272.2451 15.75147014  5516
STARLINK-37004          
1 68089U 26042W   26090.25515898  .00283481  00000+0  17895-2 0  9992
2 68089  53.1599  86.7088 0001294 104.0824 256.0340 15.75273181  5495
STARLINK-36320          
1 68090U 26042X   26086.15385821  .00375248  00000+0  23254-2 0  9998
2 68090  53.1593 107.3571 0002763 139.4736 220.6491 15.75432358  4849
STARLINK-36324          
1 68091U 26042Y   26090.28271935  .00155628  00000+0  99889-3 0  9994
2 68091  53.1584  86.8925 0001491 111.5876 248.5304 15.75283361  5499
STARLINK-36896          
1 68092U 26042Z   26090.27331567  .00230557  00000+0  14646-2 0  9994
2 68092  53.1582  86.8304 0001063  44.7081 315.4025 15.75284606  5485
STARLINK-36251          
1 68093U 26042AA  26090.23531033  .00218295  00000+0  10783-2 0  9994
2 68093  53.1574  86.5769 0001551  42.7946 317.3197 15.80943115  5483
STARLINK-36787          
1 68094U 26042AB  26090.27817842  .00253218  00000+0  16009-2 0  9995
2 68094  53.1582  86.8619 0001340  90.2252 269.8922 15.75327358  5480
